{"type": "FeatureCollection", "features": [ {"type": "Feature", "properties": {"norad_id": 30411, "name": "FENGYUN 1C DEB", "group": "fengyun-1c-debris", "lat": 66.03147479884605, "lon": -123.52663307745922, "alt_km": 794.5178560667573, "timestamp": "2025-12-11T15:53:39.818702+00:00", "meta": {"OBJECT_NAME": "FENGYUN 1C DEB", "OBJECT_ID": "1999-025AEA", "EPOCH": "2025-12-11T07:02:48.647040", "MEAN_MOTION": 14.07635233, "ECCENTRICITY": 0.01226158, "INCLINATION": 98.5811, "RA_OF_ASC_NODE": 255.9779, "ARG_OF_PERICENTER": 110.6601, "MEAN_ANOMALY": 250.7766, "EPHEMERIS_TYPE": 0, "CLASSIFICATION_TYPE": "U", "NORAD_CAT_ID": 30411, "ELEMENT_SET_NO": 999, "REV_AT_EPOCH": 95963, "BSTAR": 0.0024165675, "MEAN_MOTION_DOT": 4.334e-05, "MEAN_MOTION_DDOT": 0}, "tle": {"line1": "1 30411U 99025AEA 25345.29361860  .00004334  00000+0  24166-2 0  9992", "line2": "2 30411  98.5811 255.9779 0122615 110.6601 250.7766 14.07635233959638"}}, "geometry": {"type": "Point", "coordinates": [-123.52663307745922, 66.03147479884605]}}, {"type": "Feature", "properties": {"norad_id": 30413, "name": "FENGYUN 1C DEB", "group": "fengyun-1c-debris", "lat": 5.1112102015950365, "lon": -142.95902767139287, "alt_km": 812.3033671228968, "timestamp": "2025-12-11T15:53:39.818712+00:00", "meta": {"OBJECT_NAME": "FENGYUN 1C DEB", "OBJECT_ID": "1999-025AEC", "EPOCH": "2025-12-10T11:56:20.155200", "MEAN_MOTION": 14.3249455, "ECCENTRICITY": 0.00455228, "INCLINATION": 102.0618, "RA_OF_ASC_NODE": 216.5222, "ARG_OF_PERICENTER": 222.7559, "MEAN_ANOMALY": 258.3655, "EPHEMERIS_TYPE": 0, "CLASSIFICATION_TYPE": "U", "NORAD_CAT_ID": 30413, "ELEMENT_SET_NO": 999, "REV_AT_EPOCH": 97107, "BSTAR": 0.0032225696, "MEAN_MOTION_DOT": 8.773e-05, "MEAN_MOTION_DDOT": 0}, "tle": {"line1": "1 30413U 99025AEC 25344.49745550  .00008773  00000+0  32226-2 0  9994", "line2": "2 30413 102.0618 216.5222 0045522 222.7559 258.3655 14.32494550971076"}}, "geometry": {"type": "Point", "coordinates": [-142.95902767139287, 5.1112102015950365]}}, {"type": "Feature", "properties": {"norad_id": 30414, "name": "FENGYUN 1C DEB", "group": "fengyun-1c-debris", "lat": 80.22794499383501, "lon": 74.63674858846758, "alt_km": 781.4353735240193, "timestamp": "2025-12-11T15:53:39.818722+00:00", "meta": {"OBJECT_NAME": "FENGYUN 1C DEB", "OBJECT_ID": "1999-025AED", "EPOCH": "2025-12-11T03:46:05.883456", "MEAN_MOTION": 14.34119931, "ECCENTRICITY": 0.00585194, "INCLINATION": 99.0809, "RA_OF_ASC_NODE": 142.3282, "ARG_OF_PERICENTER": 193.3014, "MEAN_ANOMALY": 166.6629, "EPHEMERIS_TYPE": 0, "CLASSIFICATION_TYPE": "U", "NORAD_CAT_ID": 30414, "ELEMENT_SET_NO": 999, "REV_AT_EPOCH": 97064, "BSTAR": 0.0042267125, "MEAN_MOTION_DOT": 0.0001203, "MEAN_MOTION_DDOT": 0}, "tle": {"line1": "1 30414U 99025AED 25345.15701254  .00012030  00000+0  42267-2 0  9999", "line2": "2 30414  99.0809 142.3282 0058519 193.3014 166.6629 14.34119931970648"}}, "geometry": {"type": "Point", "coordinates": [74.63674858846758, 80.22794499383501]}}, {"type": "Feature", "properties": {"norad_id": 30415, "name": "FENGYUN 1C DEB", "group": "fengyun-1c-debris", "lat": 62.74770378913562, "lon": 26.629249479151976, "alt_km": 1152.251219737651, "timestamp": "2025-12-11T15:53:39.818733+00:00", "meta": {"OBJECT_NAME": "FENGYUN 1C DEB", "OBJECT_ID": "1999-025AEE", "EPOCH": "2025-12-10T09:50:09.121056", "MEAN_MOTION": 13.68925916, "ECCENTRICITY": 0.02383681, "INCLINATION": 99.6458, "RA_OF_ASC_NODE": 44.6545, "ARG_OF_PERICENTER": 275.2543, "MEAN_ANOMALY": 98.9202, "EPHEMERIS_TYPE": 0, "CLASSIFICATION_TYPE": "U", "NORAD_CAT_ID": 30415, "ELEMENT_SET_NO": 999, "REV_AT_EPOCH": 93846, "BSTAR": 0.0017368588, "MEAN_MOTION_DOT": 1.781e-05, "MEAN_MOTION_DDOT": 0}, "tle": {"line1": "1 30415U 99025AEE 25344.40982779  .00001781  00000+0  17369-2 0  9996", "line2": "2 30415  99.6458  44.6545 0238368 275.2543  98.9202 13.68925916938462"}}, "geometry": {"type": "Point", "coordinates": [26.629249479151976, 62.74770378913562]}}, {"type": "Feature", "properties": {"norad_id": 30416, "name": "FENGYUN 1C DEB", "group": "fengyun-1c-debris", "lat": 47.80795222041782, "lon": 0.22517034998035554, "alt_km": 912.9750955963164, "timestamp": "2025-12-11T15:53:39.818743+00:00", "meta": {"OBJECT_NAME": "FENGYUN 1C DEB", "OBJECT_ID": "1999-025AEF", "EPOCH": "2025-12-11T07:06:03.672576", "MEAN_MOTION": 14.02627489, "ECCENTRICITY": 0.00554384, "INCLINATION": 98.835, "RA_OF_ASC_NODE": 9.7492, "ARG_OF_PERICENTER": 193.8607, "MEAN_ANOMALY": 166.104, "EPHEMERIS_TYPE": 0, "CLASSIFICATION_TYPE": "U", "NORAD_CAT_ID": 30416, "ELEMENT_SET_NO": 999, "REV_AT_EPOCH": 96604, "BSTAR": 0.0005200021, "MEAN_MOTION_DOT": 7.7e-06, "MEAN_MOTION_DDOT": 0}, "tle": {"line1": "1 30416U 99025AEF 25345.29587584  .00000770  00000+0  52000-3 0  9999", "line2": "2 30416  98.8350   9.7492 0055438 193.8607 166.1040 14.02627489966045"}}, "geometry": {"type": "Point", "coordinates": [0.22517034998035554, 47.80795222041782]}}, {"type": "Feature", "properties": {"norad_id": 30417, "name": "FENGYUN 1C DEB", "group": "fengyun-1c-debris", "lat": -40.00347933954841, "lon": 148.29758728534767, "alt_km": 855.6620638001086, "timestamp": "2025-12-11T15:53:39.818753+00:00", "meta": {"OBJECT_NAME": "FENGYUN 1C DEB", "OBJECT_ID": "1999-025AEG", "EPOCH": "2025-12-10T22:01:40.620000", "MEAN_MOTION": 14.14659789, "ECCENTRICITY": 0.0064384, "INCLINATION": 98.6929, "RA_OF_ASC_NODE": 334.9494, "ARG_OF_PERICENTER": 125.1454, "MEAN_ANOMALY": 265.4771, "EPHEMERIS_TYPE": 0, "CLASSIFICATION_TYPE": "U", "NORAD_CAT_ID": 30417, "ELEMENT_SET_NO": 999, "REV_AT_EPOCH": 97363, "BSTAR": 0.00037556, "MEAN_MOTION_DOT": 6.95e-06, "MEAN_MOTION_DDOT": 0}, "tle": {"line1": "1 30417U 99025AEG 25344.91783125  .00000695  00000+0  37556-3 0  9992", "line2": "2 30417  98.6929 334.9494 0064384 125.1454 265.4771 14.14659789973637"}}, "geometry": {"type": "Point", "coordinates": [148.29758728534767, -40.00347933954841]}}, {"type": "Feature", "properties": {"norad_id": 30418, "name": "FENGYUN 1C DEB", "group": "fengyun-1c-debris", "lat": 81.06511898226961, "lon": 63.45149295155247, "alt_km": 541.3538575733, "timestamp": "2025-12-11T15:53:39.818763+00:00", "meta": {"OBJECT_NAME": "FENGYUN 1C DEB", "OBJECT_ID": "1999-025AEH", "EPOCH": "2025-12-11T04:57:24.549696", "MEAN_MOTION": 14.84159844, "ECCENTRICITY": 0.01111717, "INCLINATION": 98.8408, "RA_OF_ASC_NODE": 144.8247, "ARG_OF_PERICENTER": 120.4752, "MEAN_ANOMALY": 55.3815, "EPHEMERIS_TYPE": 0, "CLASSIFICATION_TYPE": "U", "NORAD_CAT_ID": 30418, "ELEMENT_SET_NO": 999, "REV_AT_EPOCH": 569, "BSTAR": 0.0013778556, "MEAN_MOTION_DOT": 0.00012803, "MEAN_MOTION_DDOT": 0}, "tle": {"line1": "1 30418U 99025AEH 25345.20653414  .00012803  00000+0  13779-2 0  9997", "line2": "2 30418  98.8408 144.8247 0111171 120.4752  55.3815 14.84159844  5693"}}, "geometry": {"type": "Point", "coordinates": [63.45149295155247, 81.06511898226961]}}, {"type": "Feature", "properties": {"norad_id": 30419, "name": "FENGYUN 1C DEB", "group": "fengyun-1c-debris", "lat": 80.7517625215329, "lon": -156.31395749422106, "alt_km": 806.3905444105867, "timestamp": "2025-12-11T15:53:39.818773+00:00", "meta": {"OBJECT_NAME": "FENGYUN 1C DEB", "OBJECT_ID": "1999-025AEJ", "EPOCH": "2025-12-10T19:17:42.530208", "MEAN_MOTION": 14.18028815, "ECCENTRICITY": 0.00530669, "INCLINATION": 99.2402, "RA_OF_ASC_NODE": 291.5147, "ARG_OF_PERICENTER": 30.2819, "MEAN_ANOMALY": 359.8464, "EPHEMERIS_TYPE": 0, "CLASSIFICATION_TYPE": "U", "NORAD_CAT_ID": 30419, "ELEMENT_SET_NO": 999, "REV_AT_EPOCH": 97321, "BSTAR": 0.001288421, "MEAN_MOTION_DOT": 2.63e-05, "MEAN_MOTION_DDOT": 0}, "tle": {"line1": "1 30419U 99025AEJ 25344.80396447  .00002630  00000+0  12884-2 0  9996", "line2": "2 30419  99.2402 291.5147 0053066  30.2819 359.8464 14.18028815973216"}}, "geometry": {"type": "Point", "coordinates": [-156.31395749422106, 80.7517625215329]}}, {"type": "Feature", "properties": {"norad_id": 30432, "name": "FENGYUN 1C DEB", "group": "fengyun-1c-debris", "lat": -5.775450387107341, "lon": -114.60088168465586, "alt_km": 701.9289972626284, "timestamp": "2025-12-11T15:53:39.818784+00:00", "meta": {"OBJECT_NAME": "FENGYUN 1C DEB", "OBJECT_ID": "1999-025AET", "EPOCH": "2025-12-11T04:15:11.540160", "MEAN_MOTION": 14.40667722, "ECCENTRICITY": 0.00831166, "INCLINATION": 98.8348, "RA_OF_ASC_NODE": 243.997, "ARG_OF_PERICENTER": 343.6152, "MEAN_ANOMALY": 16.2352, "EPHEMERIS_TYPE": 0, "CLASSIFICATION_TYPE": "U", "NORAD_CAT_ID": 30432, "ELEMENT_SET_NO": 999, "REV_AT_EPOCH": 98712, "BSTAR": 0.0011445532, "MEAN_MOTION_DOT": 3.759e-05, "MEAN_MOTION_DDOT": 0}, "tle": {"line1": "1 30432U 99025AET 25345.17721690  .00003759  00000+0  11446-2 0  9990", "line2": "2 30432  98.8348 243.9970 0083116 343.6152  16.2352 14.40667722987126"}}, "geometry": {"type": "Point", "coordinates": [-114.60088168465586, -5.775450387107341]}}, {"type": "Feature", "properties": {"norad_id": 30434, "name": "FENGYUN 1C DEB", "group": "fengyun-1c-debris", "lat": -19.468291856052733, "lon": -24.275958442525347, "alt_km": 955.0146565325749, "timestamp": "2025-12-11T15:53:39.818794+00:00", "meta": {"OBJECT_NAME": "FENGYUN 1C DEB", "OBJECT_ID": "1999-025AEV", "EPOCH": "2025-12-10T11:22:16.932576", "MEAN_MOTION": 13.90647911, "ECCENTRICITY": 0.01207823, "INCLINATION": 98.9988, "RA_OF_ASC_NODE": 331.362, "ARG_OF_PERICENTER": 237.4216, "MEAN_ANOMALY": 275.0449, "EPHEMERIS_TYPE": 0, "CLASSIFICATION_TYPE": "U", "NORAD_CAT_ID": 30434, "ELEMENT_SET_NO": 999, "REV_AT_EPOCH": 95675, "BSTAR": 0.00047001157, "MEAN_MOTION_DOT": 5.78e-06, "MEAN_MOTION_DDOT": 0}, "tle": {"line1": "1 30434U 99025AEV 25344.47380709  .00000578  00000+0  47001-3 0  9999", "line2": "2 30434  98.9988 331.3620 0120782 237.4216 275.0449 13.90647911956754"}}, "geometry": {"type": "Point", "coordinates": [-24.275958442525347, -19.468291856052733]}}]}